NAVSTAR 77 (USA 289)    
1 43873U 18109A   23358.82067712 -.00000008  00000+0  00000+0 0  9995
2 43873  55.2334 127.9589 0028023 191.0942 335.4738  2.00572279 36861
